STARLINK-36517          
1 67454U 26008K   26039.58335648  .00023297  00000+0  40226-3 0  9993
2 67454  43.0006  11.1859 0001171 277.5084  46.7659 15.50542804  5139
STARLINK-36516          
1 67455U 26008L   26039.58335648  .00028962  00000+0  49880-3 0  9993
2 67455  43.0004  11.0487 0001527 270.1915 110.0452 15.50515249  5118
STARLINK-36493          
1 67456U 26008M   26039.58335648  .00026022  00000+0  44848-3 0  9998
2 67456  43.0006  11.0170 0001425 260.3857 132.7456 15.50542810  5112
STARLINK-36529          
1 67457U 26008N   26039.58335648  .00019597  00000+0  33938-3 0  9996
2 67457  43.0005  10.7585 0001197 244.6163 253.1262 15.50550406  5112
STARLINK-36528          
1 67458U 26008P   26039.58335648 -.02092241  00000+0 -32903-1 0  9997
2 67458  43.0000  10.4628 0001117 255.5861   2.4591 15.56000906  5134
STARLINK-36546          
1 67459U 26008Q   26039.58335648  .00023298  00000+0  40229-3 0  9992
2 67459  43.0004  10.7408 0001206 272.3560 232.2075 15.50542290  5119
STARLINK-36523          
1 67460U 26008R   26039.58335648  .00053054  00000+0  90538-3 0  9995
2 67460  43.0005  10.7064 0001753 273.9624 244.8388 15.50536486  5133
STARLINK-36522          
1 67461U 26008S   26039.58335648  .00043576  00000+0  74554-3 0  9994
2 67461  43.0006  11.0110 0001550 268.0832 127.2318 15.50538358  5117
STARLINK-36504          
1 67462U 26008T   26039.58335648 -.02019698  00000+0 -34255-1 0  9999
2 67462  43.0002  10.5276 0000848 273.9986 317.7471 15.53854490  5134
STARLINK-36505          
1 67463U 26008U   26039.58335648 -.01354101  00000+0 -24779-1 0  9990
2 67463  43.0003  10.6151 0001487 281.4653 274.4290 15.51534227  5111
STARLINK-36421          
1 67464U 26008V   26039.58335648  .00027625  00000+0  47580-3 0  9993
2 67464  43.0005  11.0023 0000977 251.2721 147.3457 15.50534074  5113
STARLINK-36437          
1 67465U 26008W   26039.58335648 -.02067552  00000+0 -37385-1 0  9991
2 67465  43.0005  10.5870 0000785 292.6595 274.1916 15.52183753  5118
