CCSDS_OMM_VERS = 2.0
CREATION_DATE  = 
ORIGINATOR     = 

OBJECT_NAME    = STARLINK-36517
OBJECT_ID      = 2026-008K
CENTER_NAME    = EARTH
REF_FRAME      = TEME
TIME_SYSTEM    = UTC
MEAN_ELEMENT_THEORY = SGP/SGP4

EPOCH          = 2026-02-08T14:00:01.999872
MEAN_MOTION    = 15.50542804
ECCENTRICITY   = .00011711
INCLINATION    = 43.0006
RA_OF_ASC_NODE = 11.1859
ARG_OF_PERICENTER = 277.5084
MEAN_ANOMALY   = 46.7659

EPHEMERIS_TYPE = 0
CLASSIFICATION_TYPE = U
NORAD_CAT_ID   = 67454
ELEMENT_SET_NO = 999
REV_AT_EPOCH   = 513
BSTAR          = .4022629E-3
MEAN_MOTION_DOT = .23297E-3
MEAN_MOTION_DDOT = 0

CCSDS_OMM_VERS = 2.0
CREATION_DATE  = 
ORIGINATOR     = 

OBJECT_NAME    = STARLINK-36516
OBJECT_ID      = 2026-008L
CENTER_NAME    = EARTH
REF_FRAME      = TEME
TIME_SYSTEM    = UTC
MEAN_ELEMENT_THEORY = SGP/SGP4

EPOCH          = 2026-02-08T14:00:01.999872
MEAN_MOTION    = 15.50515249
ECCENTRICITY   = .00015276
INCLINATION    = 43.0004
RA_OF_ASC_NODE = 11.0487
ARG_OF_PERICENTER = 270.1915
MEAN_ANOMALY   = 110.0452

EPHEMERIS_TYPE = 0
CLASSIFICATION_TYPE = U
NORAD_CAT_ID   = 67455
ELEMENT_SET_NO = 999
REV_AT_EPOCH   = 511
BSTAR          = .49879848E-3
MEAN_MOTION_DOT = .28962E-3
MEAN_MOTION_DDOT = 0

CCSDS_OMM_VERS = 2.0
CREATION_DATE  = 
ORIGINATOR     = 

OBJECT_NAME    = STARLINK-36493
OBJECT_ID      = 2026-008M
CENTER_NAME    = EARTH
REF_FRAME      = TEME
TIME_SYSTEM    = UTC
MEAN_ELEMENT_THEORY = SGP/SGP4

EPOCH          = 2026-02-08T14:00:01.999872
MEAN_MOTION    = 15.50542810
ECCENTRICITY   = .00014257
INCLINATION    = 43.0006
RA_OF_ASC_NODE = 11.0170
ARG_OF_PERICENTER = 260.3857
MEAN_ANOMALY   = 132.7456

EPHEMERIS_TYPE = 0
CLASSIFICATION_TYPE = U
NORAD_CAT_ID   = 67456
ELEMENT_SET_NO = 999
REV_AT_EPOCH   = 511
BSTAR          = .44848486E-3
MEAN_MOTION_DOT = .26022E-3
MEAN_MOTION_DDOT = 0

CCSDS_OMM_VERS = 2.0
CREATION_DATE  = 
ORIGINATOR     = 

OBJECT_NAME    = STARLINK-36529
OBJECT_ID      = 2026-008N
CENTER_NAME    = EARTH
REF_FRAME      = TEME
TIME_SYSTEM    = UTC
MEAN_ELEMENT_THEORY = SGP/SGP4

EPOCH          = 2026-02-08T14:00:01.999872
MEAN_MOTION    = 15.50550406
ECCENTRICITY   = .00011972
INCLINATION    = 43.0005
RA_OF_ASC_NODE = 10.7585
ARG_OF_PERICENTER = 244.6163
MEAN_ANOMALY   = 253.1262

EPHEMERIS_TYPE = 0
CLASSIFICATION_TYPE = U
NORAD_CAT_ID   = 67457
ELEMENT_SET_NO = 999
REV_AT_EPOCH   = 511
BSTAR          = .33937726E-3
MEAN_MOTION_DOT = .19597E-3
MEAN_MOTION_DDOT = 0

CCSDS_OMM_VERS = 2.0
CREATION_DATE  = 
ORIGINATOR     = 

OBJECT_NAME    = STARLINK-36528
OBJECT_ID      = 2026-008P
CENTER_NAME    = EARTH
REF_FRAME      = TEME
TIME_SYSTEM    = UTC
MEAN_ELEMENT_THEORY = SGP/SGP4

EPOCH          = 2026-02-08T14:00:01.999872
MEAN_MOTION    = 15.56000906
ECCENTRICITY   = .00011179
INCLINATION    = 43.0000
RA_OF_ASC_NODE = 10.4628
ARG_OF_PERICENTER = 255.5861
MEAN_ANOMALY   = 2.4591

EPHEMERIS_TYPE = 0
CLASSIFICATION_TYPE = U
NORAD_CAT_ID   = 67458
ELEMENT_SET_NO = 999
REV_AT_EPOCH   = 513
BSTAR          = -.32903072E-1
MEAN_MOTION_DOT = -.2092241E-1
MEAN_MOTION_DDOT = 0

CCSDS_OMM_VERS = 2.0
CREATION_DATE  = 
ORIGINATOR     = 

OBJECT_NAME    = STARLINK-36546
OBJECT_ID      = 2026-008Q
CENTER_NAME    = EARTH
REF_FRAME      = TEME
TIME_SYSTEM    = UTC
MEAN_ELEMENT_THEORY = SGP/SGP4

EPOCH          = 2026-02-08T14:00:01.999872
MEAN_MOTION    = 15.50542290
ECCENTRICITY   = .0001206
INCLINATION    = 43.0004
RA_OF_ASC_NODE = 10.7408
ARG_OF_PERICENTER = 272.3560
MEAN_ANOMALY   = 232.2075

EPHEMERIS_TYPE = 0
CLASSIFICATION_TYPE = U
NORAD_CAT_ID   = 67459
ELEMENT_SET_NO = 999
REV_AT_EPOCH   = 511
BSTAR          = .40228636E-3
MEAN_MOTION_DOT = .23298E-3
MEAN_MOTION_DDOT = 0

CCSDS_OMM_VERS = 2.0
CREATION_DATE  = 
ORIGINATOR     = 

OBJECT_NAME    = STARLINK-36523
OBJECT_ID      = 2026-008R
CENTER_NAME    = EARTH
REF_FRAME      = TEME
TIME_SYSTEM    = UTC
MEAN_ELEMENT_THEORY = SGP/SGP4

EPOCH          = 2026-02-08T14:00:01.999872
MEAN_MOTION    = 15.50536486
ECCENTRICITY   = .00017533
INCLINATION    = 43.0005
RA_OF_ASC_NODE = 10.7064
ARG_OF_PERICENTER = 273.9624
MEAN_ANOMALY   = 244.8388

EPHEMERIS_TYPE = 0
CLASSIFICATION_TYPE = U
NORAD_CAT_ID   = 67460
ELEMENT_SET_NO = 999
REV_AT_EPOCH   = 513
BSTAR          = .90538404E-3
MEAN_MOTION_DOT = .53054E-3
MEAN_MOTION_DDOT = 0

CCSDS_OMM_VERS = 2.0
CREATION_DATE  = 
ORIGINATOR     = 

OBJECT_NAME    = STARLINK-36522
OBJECT_ID      = 2026-008S
CENTER_NAME    = EARTH
REF_FRAME      = TEME
TIME_SYSTEM    = UTC
MEAN_ELEMENT_THEORY = SGP/SGP4

EPOCH          = 2026-02-08T14:00:01.999872
MEAN_MOTION    = 15.50538358
ECCENTRICITY   = .00015501
INCLINATION    = 43.0006
RA_OF_ASC_NODE = 11.0110
ARG_OF_PERICENTER = 268.0832
MEAN_ANOMALY   = 127.2318

EPHEMERIS_TYPE = 0
CLASSIFICATION_TYPE = U
NORAD_CAT_ID   = 67461
ELEMENT_SET_NO = 999
REV_AT_EPOCH   = 511
BSTAR          = .74554484E-3
MEAN_MOTION_DOT = .43576E-3
MEAN_MOTION_DDOT = 0

CCSDS_OMM_VERS = 2.0
CREATION_DATE  = 
ORIGINATOR     = 

OBJECT_NAME    = STARLINK-36504
OBJECT_ID      = 2026-008T
CENTER_NAME    = EARTH
REF_FRAME      = TEME
TIME_SYSTEM    = UTC
MEAN_ELEMENT_THEORY = SGP/SGP4

EPOCH          = 2026-02-08T14:00:01.999872
MEAN_MOTION    = 15.53854490
ECCENTRICITY   = .00008483
INCLINATION    = 43.0002
RA_OF_ASC_NODE = 10.5276
ARG_OF_PERICENTER = 273.9986
MEAN_ANOMALY   = 317.7471

EPHEMERIS_TYPE = 0
CLASSIFICATION_TYPE = U
NORAD_CAT_ID   = 67462
ELEMENT_SET_NO = 999
REV_AT_EPOCH   = 513
BSTAR          = -.34254856E-1
MEAN_MOTION_DOT = -.2019698E-1
MEAN_MOTION_DDOT = 0

CCSDS_OMM_VERS = 2.0
CREATION_DATE  = 
ORIGINATOR     = 

OBJECT_NAME    = STARLINK-36505
OBJECT_ID      = 2026-008U
CENTER_NAME    = EARTH
REF_FRAME      = TEME
TIME_SYSTEM    = UTC
MEAN_ELEMENT_THEORY = SGP/SGP4

EPOCH          = 2026-02-08T14:00:01.999872
MEAN_MOTION    = 15.51534227
ECCENTRICITY   = .00014872
INCLINATION    = 43.0003
RA_OF_ASC_NODE = 10.6151
ARG_OF_PERICENTER = 281.4653
MEAN_ANOMALY   = 274.4290

EPHEMERIS_TYPE = 0
CLASSIFICATION_TYPE = U
NORAD_CAT_ID   = 67463
ELEMENT_SET_NO = 999
REV_AT_EPOCH   = 511
BSTAR          = -.24778611E-1
MEAN_MOTION_DOT = -.1354101E-1
MEAN_MOTION_DDOT = 0

CCSDS_OMM_VERS = 2.0
CREATION_DATE  = 
ORIGINATOR     = 

OBJECT_NAME    = STARLINK-36421
OBJECT_ID      = 2026-008V
CENTER_NAME    = EARTH
REF_FRAME      = TEME
TIME_SYSTEM    = UTC
MEAN_ELEMENT_THEORY = SGP/SGP4

EPOCH          = 2026-02-08T14:00:01.999872
MEAN_MOTION    = 15.50534074
ECCENTRICITY   = .00009779
INCLINATION    = 43.0005
RA_OF_ASC_NODE = 11.0023
ARG_OF_PERICENTER = 251.2721
MEAN_ANOMALY   = 147.3457

EPHEMERIS_TYPE = 0
CLASSIFICATION_TYPE = U
NORAD_CAT_ID   = 67464
ELEMENT_SET_NO = 999
REV_AT_EPOCH   = 511
BSTAR          = .47580259E-3
MEAN_MOTION_DOT = .27625E-3
MEAN_MOTION_DDOT = 0

CCSDS_OMM_VERS = 2.0
CREATION_DATE  = 
ORIGINATOR     = 

OBJECT_NAME    = STARLINK-36437
OBJECT_ID      = 2026-008W
CENTER_NAME    = EARTH
REF_FRAME      = TEME
TIME_SYSTEM    = UTC
MEAN_ELEMENT_THEORY = SGP/SGP4

EPOCH          = 2026-02-08T14:00:01.999872
MEAN_MOTION    = 15.52183753
ECCENTRICITY   = .00007853
INCLINATION    = 43.0005
RA_OF_ASC_NODE = 10.5870
ARG_OF_PERICENTER = 292.6595
MEAN_ANOMALY   = 274.1916

EPHEMERIS_TYPE = 0
CLASSIFICATION_TYPE = U
NORAD_CAT_ID   = 67465
ELEMENT_SET_NO = 999
REV_AT_EPOCH   = 511
BSTAR          = -.37384859E-1
MEAN_MOTION_DOT = -.2067552E-1
MEAN_MOTION_DDOT = 0

